H1 CPF 01  gfz 2022 08 07 00  7191 tandemx   
H2 1003001  6202 36605    2022 08 07 00 59 42 2022 08 12 00 00 42   120 1 1  0 0 0
H9
10 0 59802   5742.000000  0    2507248.237   6241324.640   1483442.916
10 0 59802   5862.000000  0    2725417.875   6299489.513    589415.259
10 0 59802   5982.000000  0    2895982.455   6244156.262   -314988.222
10 0 59802   6102.000000  0    3014015.308   6077220.366  -1213853.016
10 0 59802   6222.000000  0    3075569.960   5802621.360  -2091380.521
10 0 59802   6342.000000  0    3077782.549   5426249.501  -2932172.777
10 0 59802   6462.000000  0    3018951.779   4955813.784  -3721508.448
10 0 59802   6582.000000  0    2898593.618   4400674.821  -4445602.244
10 0 59802   6702.000000  0    2717470.456   3771649.655  -5091843.126
10 0 59802   6822.000000  0    2477594.815   3080792.768  -5649007.816
10 0 59802   6942.000000  0    2182208.767   2341158.681  -6107447.135
10 0 59802   7062.000000  0    1835738.339   1566551.062  -6459242.119
10 0 59802   7182.000000  0    1443725.836    771264.726  -6698328.518
10 0 59802   7302.000000  0    1012741.302    -30175.082  -6820591.468
10 0 59802   7422.000000  0     550272.335   -823273.425  -6823929.276
10 0 59802   7542.000000  0      64595.823  -1593821.969  -6708283.916
10 0 59802   7662.000000  0    -435365.834  -2328145.780  -6475641.432
10 0 59802   7782.000000  0    -940204.304  -3013340.747  -6130003.426
10 0 59802   7902.000000  0   -1440197.921  -3637498.106  -5677325.078
10 0 59802   8022.000000  0   -1925494.046  -4189910.744  -5125422.900
10 0 59802   8142.000000  0   -2386300.007  -4661260.944  -4483852.261
10 0 59802   8262.000000  0   -2813079.415  -5043784.782  -3763752.710
10 0 59802   8382.000000  0   -3196748.821  -5331408.188  -2977663.326
10 0 59802   8502.000000  0   -3528870.860  -5519852.807  -2139311.120
10 0 59802   8622.000000  0   -3801840.147  -5606708.614  -1263374.388
10 0 59802   8742.000000  0   -4009056.536  -5591470.355   -365224.273
10 0 59802   8862.000000  0   -4145080.415  -5475535.888    539350.141
10 0 59802   8982.000000  0   -4205766.335  -5262166.076   1434427.073
10 0 59802   9102.000000  0   -4188371.153  -4956406.257   2304241.918
10 0 59802   9222.000000  0   -4091633.133  -4564971.035   3133473.774
10 0 59802   9342.000000  0   -3915821.011  -4096096.785   3907522.465
10 0 59802   9462.000000  0   -3662751.503  -3559365.137   4612771.284
10 0 59802   9582.000000  0   -3335774.527  -2965501.166   5236828.682
10 0 59802   9702.000000  0   -2939727.928  -2326153.451   5768744.187
10 0 59802   9822.000000  0   -2480862.716  -1653661.615   6199197.069
10 0 59802   9942.000000  0   -1966740.864   -960814.744   6520655.874
10 0 59802  10062.000000  0   -1406106.000   -260604.230   6727505.144
10 0 59802  10182.000000  0    -808731.354    434020.408   6816135.040
10 0 59802  10302.000000  0    -185249.700   1110389.398   6785000.383
10 0 59802  10422.000000  0     453035.651   1756343.454   6634646.424
10 0 59802  10542.000000  0    1094355.515   2360452.470   6367699.824
10 0 59802  10662.000000  0    1726691.130   2912217.541   5988824.841
10 0 59802  10782.000000  0    2337998.561   3402254.689   5504647.413
10 0 59802  10902.000000  0    2916439.062   3822458.483   4923646.152
10 0 59802  11022.000000  0    3450611.329   4166140.819   4256008.557
10 0 59802  11142.000000  0    3929777.930   4428141.087   3513456.884
10 0 59802  11262.000000  0    4344086.123   4604909.882   2709047.010
10 0 59802  11382.000000  0    4684776.172   4694558.688   1856935.458
10 0 59802  11502.000000  0    4944367.099   4696876.574    972127.319
10 0 59802  11622.000000  0    5116823.259   4613313.050     70205.905
10 0 59802  11742.000000  0    5197690.549   4446925.730   -832951.742
10 0 59802  11862.000000  0    5184199.925   4202294.994  -1721462.831
10 0 59802  11982.000000  0    5075338.102   3885408.632  -2579725.489
10 0 59802  12102.000000  0    4871882.880   3503519.160  -3392698.480
10 0 59802  12222.000000  0    4576401.904   3064978.674  -4146167.702
10 0 59802  12342.000000  0    4193215.711   2579055.062  -4826994.645
10 0 59802  12462.000000  0    3728327.200   2055733.313  -5423340.981
10 0 59802  12582.000000  0    3189319.869   1505508.540  -5924866.456
10 0 59802  12702.000000  0    2585226.661    939175.413  -6322898.262
10 0 59802  12822.000000  0    1926373.224    367617.748  -6610569.045
10 0 59802  12942.000000  0    1224200.409   -198396.939  -6782923.792
10 0 59802  13062.000000  0     491067.093   -748416.169  -6836997.899
10 0 59802  13182.000000  0    -259964.958  -1272491.151  -6771861.229
10 0 59802  13302.000000  0   -1015357.520  -1761351.263  -6588631.558
10 0 59802  13422.000000  0   -1761334.012  -2206564.180  -6290458.655
10 0 59802  13542.000000  0   -2484125.236  -2600679.497  -5882475.623
10 0 59802  13662.000000  0   -3170218.280  -2937352.621  -5371719.897
10 0 59802  13782.000000  0   -3806607.700  -3211449.238  -4767024.443
10 0 59802  13902.000000  0   -4381044.177  -3419127.232  -4078875.902
10 0 59802  14022.000000  0   -4882274.149  -3557893.291  -3319242.759
10 0 59802  14142.000000  0   -5300266.889  -3626633.847  -2501375.110
10 0 59802  14262.000000  0   -5626423.181  -3625618.704  -1639577.552
10 0 59802  14382.000000  0   -5853759.533  -3556476.359   -748959.367
10 0 59802  14502.000000  0   -5977063.722  -3422141.603    154833.478
10 0 59802  14622.000000  0   -5993017.211  -3226776.135   1055899.251
10 0 59802  14742.000000  0   -5900280.155  -2975663.777   1938369.879
10 0 59802  14862.000000  0   -5699534.613  -2675081.645   2786700.188
10 0 59802  14982.000000  0   -5393487.511  -2332152.636   3585949.152
10 0 59802  15102.000000  0   -4986832.932  -1954682.333   4322050.673
10 0 59802  15222.000000  0   -4486172.800  -1550983.045   4982064.411
10 0 59802  15342.000000  0   -3899901.862  -1129692.617   5554402.100
10 0 59802  15462.000000  0   -3238059.966   -699591.218   6029028.895
10 0 59802  15582.000000  0   -2512152.492   -269418.487   6397636.202
10 0 59802  15702.000000  0   -1734942.741    152303.724   6653780.944
10 0 59802  15822.000000  0    -920223.129    557438.060   6792990.983
10 0 59802  15942.000000  0     -82569.161    938387.088   6812838.274
10 0 59802  16062.000000  0     762921.025   1288234.884   6712978.290
10 0 59802  16182.000000  0    1600897.915   1600872.648   6495155.764
10 0 59802  16302.000000  0    2416038.469   1871105.610   6163175.571
10 0 59802  16422.000000  0    3193325.987   2094739.611   5722840.930
10 0 59802  16542.000000  0    3918329.413   2268646.802   5181857.945
10 0 59802  16662.000000  0    4577474.624   2390809.001   4549706.293
10 0 59802  16782.000000  0    5158304.110   2460338.913   3837479.861
10 0 59802  16902.000000  0    5649723.103   2477477.307   3057695.459
10 0 59802  17022.000000  0    6042218.658   2443564.838   2224071.033
10 0 59802  17142.000000  0    6328051.975   2360991.908   1351283.665
10 0 59802  17262.000000  0    6501418.475   2233125.200    454705.166
10 0 59802  17382.000000  0    6558569.092   2064213.452   -449876.906
10 0 59802  17502.000000  0    6497888.788   1859274.915  -1346546.891
10 0 59802  17622.000000  0    6319933.073   1623969.103  -2219547.549
10 0 59802  17742.000000  0    6027423.623   1364456.590  -3053564.481
10 0 59802  17862.000000  0    5625197.726   1087249.637  -3834000.065
10 0 59802  17982.000000  0    5120116.501    799058.547  -4547230.177
10 0 59802  18102.000000  0    4520934.523    506637.954  -5180838.800
10 0 59802  18222.000000  0    3838136.686    216636.259  -5723826.768
10 0 59802  18342.000000  0    3083745.719    -64548.043  -6166793.417
10 0 59802  18462.000000  0    2271103.465   -330900.693  -6502088.931
10 0 59802  18582.000000  0    1414632.253   -576914.506  -6723934.183
10 0 59802  18702.000000  0     529580.841   -797698.437  -6828511.237
10 0 59802  18822.000000  0    -368244.157   -989070.729  -6814021.773
10 0 59802  18942.000000  0   -1262753.737  -1147635.144  -6680713.662
10 0 59802  19062.000000  0   -2137858.024  -1270839.810  -6430877.993
10 0 59802  19182.000000  0   -2977749.503  -1357017.461  -6068813.023
10 0 59802  19302.000000  0   -3767181.997  -1405406.821  -5600758.148
10 0 59802  19422.000000  0   -4491746.404  -1416155.337  -5034798.661
10 0 59802  19542.000000  0   -5138136.614  -1390302.184  -4380737.235
10 0 59802  19662.000000  0   -5694399.586  -1329742.028  -3649935.232
10 0 59802  19782.000000  0   -6150166.260  -1237170.082  -2855124.670
10 0 59802  19902.000000  0   -6496856.677  -1116008.960  -2010191.831
10 0 59802  20022.000000  0   -6727853.734   -970318.797  -1129936.716
10 0 59802  20142.000000  0   -6838641.697   -804692.659   -229811.791
10 0 59802  20262.000000  0   -6826903.618   -624138.260    674355.407
10 0 59802  20382.000000  0   -6692574.946   -433950.629   1566647.874
10 0 59802  20502.000000  0   -6437852.298   -239579.016   2431348.513
10 0 59802  20622.000000  0   -6067156.264    -46490.503   3253226.005
10 0 59802  20742.000000  0   -5587048.925    139965.937   4017810.998
10 0 59802  20862.000000  0   -5006108.586    314690.885   4711655.740
10 0 59802  20982.000000  0   -4334765.973    472958.192   5322571.795
10 0 59802  21102.000000  0   -3585107.292    610528.874   5839842.062
10 0 59802  21222.000000  0   -2770647.726    723751.688   6254405.548
10 0 59802  21342.000000  0   -1906080.334    809648.254   6559010.929
10 0 59802  21462.000000  0   -1007005.258    865982.478   6748337.817
10 0 59802  21582.000000  0     -89645.453    891311.900   6819082.848
10 0 59802  21702.000000  0     829445.709    885020.149   6770013.023
10 0 59802  21822.000000  0    1733681.884    847330.648   6601985.801
10 0 59802  21942.000000  0    2606741.946    779301.118   6317935.194
10 0 59802  22062.000000  0    3432864.542    682798.668   5922824.525
10 0 59802  22182.000000  0    4197135.210    560456.018   5423564.677
99
